{"type": "FeatureCollection", "features": [ {"type": "Feature", "properties": {"norad_id": 31384, "name": "FENGYUN 1C DEB", "group": "fengyun-1c-debris", "lat": -58.97008239137955, "lon": 114.05994280046968, "alt_km": 1270.9602719467648, "timestamp": "2025-12-07T20:38:14.345776+00:00", "meta": {"OBJECT_NAME": "FENGYUN 1C DEB", "OBJECT_ID": "1999-025BSQ", "EPOCH": "2025-12-06T21:06:59.255136", "MEAN_MOTION": 13.86034856, "ECCENTRICITY": 0.04407186, "INCLINATION": 98.4584, "RA_OF_ASC_NODE": 307.4921, "ARG_OF_PERICENTER": 57.7777, "MEAN_ANOMALY": 335.1959, "EPHEMERIS_TYPE": 0, "CLASSIFICATION_TYPE": "U", "NORAD_CAT_ID": 31384, "ELEMENT_SET_NO": 999, "REV_AT_EPOCH": 92943, "BSTAR": 0.0039405019, "MEAN_MOTION_DOT": 9.744e-05, "MEAN_MOTION_DDOT": 0}, "tle": {"line1": "1 31384U 99025BSQ 25340.87985249  .00009744  00000+0  39405-2 0  9996", "line2": "2 31384  98.4584 307.4921 0440718  57.7777 335.1959 13.86034856929435"}}, "geometry": {"type": "Point", "coordinates": [114.05994280046968, -58.97008239137955]}}, {"type": "Feature", "properties": {"norad_id": 31385, "name": "FENGYUN 1C DEB", "group": "fengyun-1c-debris", "lat": 78.15291265235037, "lon": -59.50985346931721, "alt_km": 652.7196123067006, "timestamp": "2025-12-07T20:38:14.345786+00:00", "meta": {"OBJECT_NAME": "FENGYUN 1C DEB", "OBJECT_ID": "1999-025BSR", "EPOCH": "2025-12-07T02:26:35.156256", "MEAN_MOTION": 14.439877, "ECCENTRICITY": 0.01348421, "INCLINATION": 98.9545, "RA_OF_ASC_NODE": 70.9588, "ARG_OF_PERICENTER": 72.2554, "MEAN_ANOMALY": 46.2173, "EPHEMERIS_TYPE": 0, "CLASSIFICATION_TYPE": "U", "NORAD_CAT_ID": 31385, "ELEMENT_SET_NO": 999, "REV_AT_EPOCH": 98533, "BSTAR": 0.00027147987, "MEAN_MOTION_DOT": 9.83e-06, "MEAN_MOTION_DDOT": 0}, "tle": {"line1": "1 31385U 99025BSR 25341.10179579  .00000983  00000+0  27148-3 0  9993", "line2": "2 31385  98.9545  70.9588 0134842  72.2554  46.2173 14.43987700985330"}}, "geometry": {"type": "Point", "coordinates": [-59.50985346931721, 78.15291265235037]}}, {"type": "Feature", "properties": {"norad_id": 31386, "name": "FENGYUN 1C DEB", "group": "fengyun-1c-debris", "lat": 81.54157191299949, "lon": -89.36314741373603, "alt_km": 1061.5672374610485, "timestamp": "2025-12-07T20:38:14.345796+00:00", "meta": {"OBJECT_NAME": "FENGYUN 1C DEB", "OBJECT_ID": "1999-025BSS", "EPOCH": "2025-12-05T12:45:39.413952", "MEAN_MOTION": 13.85971042, "ECCENTRICITY": 0.01970604, "INCLINATION": 98.4386, "RA_OF_ASC_NODE": 355.1346, "ARG_OF_PERICENTER": 304.2322, "MEAN_ANOMALY": 54.0304, "EPHEMERIS_TYPE": 0, "CLASSIFICATION_TYPE": "U", "NORAD_CAT_ID": 31386, "ELEMENT_SET_NO": 999, "REV_AT_EPOCH": 93762, "BSTAR": 0.0034331289, "MEAN_MOTION_DOT": 4.558e-05, "MEAN_MOTION_DDOT": 0}, "tle": {"line1": "1 31386U 99025BSS 25339.53170618  .00004558  00000+0  34331-2 0  9996", "line2": "2 31386  98.4386 355.1346 0197060 304.2322  54.0304 13.85971042937620"}}, "geometry": {"type": "Point", "coordinates": [-89.36314741373603, 81.54157191299949]}}, {"type": "Feature", "properties": {"norad_id": 31387, "name": "FENGYUN 1C DEB", "group": "fengyun-1c-debris", "lat": -34.314655291741666, "lon": -133.4777949305986, "alt_km": 985.8287203607797, "timestamp": "2025-12-07T20:38:14.345806+00:00", "meta": {"OBJECT_NAME": "FENGYUN 1C DEB", "OBJECT_ID": "1999-025BST", "EPOCH": "2025-12-06T22:43:27.576480", "MEAN_MOTION": 14.13560438, "ECCENTRICITY": 0.02414641, "INCLINATION": 99.1686, "RA_OF_ASC_NODE": 219.257, "ARG_OF_PERICENTER": 187.5601, "MEAN_ANOMALY": 172.1904, "EPHEMERIS_TYPE": 0, "CLASSIFICATION_TYPE": "U", "NORAD_CAT_ID": 31387, "ELEMENT_SET_NO": 999, "REV_AT_EPOCH": 96215, "BSTAR": 0.00038701787, "MEAN_MOTION_DOT": 9.14e-06, "MEAN_MOTION_DDOT": 0}, "tle": {"line1": "1 31387U 99025BST 25340.94684695  .00000914  00000+0  38702-3 0  9998", "line2": "2 31387  99.1686 219.2570 0241464 187.5601 172.1904 14.13560438962150"}}, "geometry": {"type": "Point", "coordinates": [-133.4777949305986, -34.314655291741666]}}, {"type": "Feature", "properties": {"norad_id": 31388, "name": "FENGYUN 1C DEB", "group": "fengyun-1c-debris", "lat": -66.08858858576498, "lon": -9.592700372206725, "alt_km": 867.9002334897577, "timestamp": "2025-12-07T20:38:14.345816+00:00", "meta": {"OBJECT_NAME": "FENGYUN 1C DEB", "OBJECT_ID": "1999-025BSU", "EPOCH": "2025-12-03T06:07:53.129856", "MEAN_MOTION": 14.07419415, "ECCENTRICITY": 0.0046166, "INCLINATION": 98.8042, "RA_OF_ASC_NODE": 325.4619, "ARG_OF_PERICENTER": 228.0098, "MEAN_ANOMALY": 147.5361, "EPHEMERIS_TYPE": 0, "CLASSIFICATION_TYPE": "U", "NORAD_CAT_ID": 31388, "ELEMENT_SET_NO": 999, "REV_AT_EPOCH": 96308, "BSTAR": 0.00030121, "MEAN_MOTION_DOT": 4.68e-06, "MEAN_MOTION_DDOT": 0}, "tle": {"line1": "1 31388U 99025BSU 25337.25547604  .00000468  00000+0  30121-3 0  9998", "line2": "2 31388  98.8042 325.4619 0046166 228.0098 147.5361 14.07419415963087"}}, "geometry": {"type": "Point", "coordinates": [-9.592700372206725, -66.08858858576498]}}, {"type": "Feature", "properties": {"norad_id": 31389, "name": "FENGYUN 1C DEB", "group": "fengyun-1c-debris", "lat": 1.7830157182733872, "lon": 146.52225380788875, "alt_km": 713.50112118368, "timestamp": "2025-12-07T20:38:14.345825+00:00", "meta": {"OBJECT_NAME": "FENGYUN 1C DEB", "OBJECT_ID": "1999-025BSV", "EPOCH": "2025-12-06T23:50:24.506880", "MEAN_MOTION": 14.60580775, "ECCENTRICITY": 0.00298726, "INCLINATION": 99.0425, "RA_OF_ASC_NODE": 145.8611, "ARG_OF_PERICENTER": 205.6413, "MEAN_ANOMALY": 282.3044, "EPHEMERIS_TYPE": 0, "CLASSIFICATION_TYPE": "U", "NORAD_CAT_ID": 31389, "ELEMENT_SET_NO": 999, "REV_AT_EPOCH": 96413, "BSTAR": 0.0076461239, "MEAN_MOTION_DOT": 0.00037541, "MEAN_MOTION_DDOT": 0}, "tle": {"line1": "1 31389U 99025BSV 25340.99333920  .00037541  00000+0  76461-2 0  9996", "line2": "2 31389  99.0425 145.8611 0029872 205.6413 282.3044 14.60580775964139"}}, "geometry": {"type": "Point", "coordinates": [146.52225380788875, 1.7830157182733872]}}, {"type": "Feature", "properties": {"norad_id": 31410, "name": "FENGYUN 1C DEB", "group": "fengyun-1c-debris", "lat": 20.219792823138675, "lon": 139.93233399285182, "alt_km": 727.3251764251863, "timestamp": "2025-12-07T20:38:14.345836+00:00", "meta": {"OBJECT_NAME": "FENGYUN 1C DEB", "OBJECT_ID": "1999-025BSW", "EPOCH": "2025-12-07T04:43:55.125984", "MEAN_MOTION": 14.44715275, "ECCENTRICITY": 0.01105284, "INCLINATION": 98.8365, "RA_OF_ASC_NODE": 142.5281, "ARG_OF_PERICENTER": 303.3734, "MEAN_ANOMALY": 231.1358, "EPHEMERIS_TYPE": 0, "CLASSIFICATION_TYPE": "U", "NORAD_CAT_ID": 31410, "ELEMENT_SET_NO": 999, "REV_AT_EPOCH": 97671, "BSTAR": 0.0013034656, "MEAN_MOTION_DOT": 4.822e-05, "MEAN_MOTION_DDOT": 0}, "tle": {"line1": "1 31410U 99025BSW 25341.19716581  .00004822  00000+0  13035-2 0  9996", "line2": "2 31410  98.8365 142.5281 0110528 303.3734 231.1358 14.44715275976716"}}, "geometry": {"type": "Point", "coordinates": [139.93233399285182, 20.219792823138675]}}, {"type": "Feature", "properties": {"norad_id": 31411, "name": "FENGYUN 1C DEB", "group": "fengyun-1c-debris", "lat": 68.19920864791291, "lon": 20.751320338647606, "alt_km": 859.9119215751471, "timestamp": "2025-12-07T20:38:14.345846+00:00", "meta": {"OBJECT_NAME": "FENGYUN 1C DEB", "OBJECT_ID": "1999-025BSX", "EPOCH": "2025-12-06T23:17:14.195616", "MEAN_MOTION": 14.27965967, "ECCENTRICITY": 0.01005566, "INCLINATION": 98.6697, "RA_OF_ASC_NODE": 42.2923, "ARG_OF_PERICENTER": 271.8395, "MEAN_ANOMALY": 267.2592, "EPHEMERIS_TYPE": 0, "CLASSIFICATION_TYPE": "U", "NORAD_CAT_ID": 31411, "ELEMENT_SET_NO": 999, "REV_AT_EPOCH": 94397, "BSTAR": 0.00083442351, "MEAN_MOTION_DOT": 2.139e-05, "MEAN_MOTION_DDOT": 0}, "tle": {"line1": "1 31411U 99025BSX 25340.97030319  .00002139  00000+0  83442-3 0  9999", "line2": "2 31411  98.6697  42.2923 0100556 271.8395 267.2592 14.27965967943972"}}, "geometry": {"type": "Point", "coordinates": [20.751320338647606, 68.19920864791291]}}, {"type": "Feature", "properties": {"norad_id": 31412, "name": "FENGYUN 1C DEB", "group": "fengyun-1c-debris", "lat": 8.960702742418274, "lon": -75.35766926074074, "alt_km": 804.8909674205006, "timestamp": "2025-12-07T20:38:14.345855+00:00", "meta": {"OBJECT_NAME": "FENGYUN 1C DEB", "OBJECT_ID": "1999-025BSY", "EPOCH": "2025-12-06T07:07:18.424128", "MEAN_MOTION": 14.09768343, "ECCENTRICITY": 0.00837755, "INCLINATION": 98.5511, "RA_OF_ASC_NODE": 284.5164, "ARG_OF_PERICENTER": 353.1468, "MEAN_ANOMALY": 6.8551, "EPHEMERIS_TYPE": 0, "CLASSIFICATION_TYPE": "U", "NORAD_CAT_ID": 31412, "ELEMENT_SET_NO": 999, "REV_AT_EPOCH": 60901, "BSTAR": 0.0036101026, "MEAN_MOTION_DOT": 6.514e-05, "MEAN_MOTION_DDOT": 0}, "tle": {"line1": "1 31412U 99025BSY 25340.29674102  .00006514  00000+0  36101-2 0  9999", "line2": "2 31412  98.5511 284.5164 0083775 353.1468   6.8551 14.09768343609018"}}, "geometry": {"type": "Point", "coordinates": [-75.35766926074074, 8.960702742418274]}}, {"type": "Feature", "properties": {"norad_id": 31415, "name": "FENGYUN 1C DEB", "group": "fengyun-1c-debris", "lat": -37.782654024856235, "lon": 105.81085402070744, "alt_km": 825.6435866640522, "timestamp": "2025-12-07T20:38:14.345865+00:00", "meta": {"OBJECT_NAME": "FENGYUN 1C DEB", "OBJECT_ID": "1999-025BTB", "EPOCH": "2025-11-30T02:58:22.044864", "MEAN_MOTION": 14.30472505, "ECCENTRICITY": 0.00637436, "INCLINATION": 99.637, "RA_OF_ASC_NODE": 284.8171, "ARG_OF_PERICENTER": 110.0761, "MEAN_ANOMALY": 250.7294, "EPHEMERIS_TYPE": 0, "CLASSIFICATION_TYPE": "U", "NORAD_CAT_ID": 31415, "ELEMENT_SET_NO": 999, "REV_AT_EPOCH": 62650, "BSTAR": 0.0013587885, "MEAN_MOTION_DOT": 3.567e-05, "MEAN_MOTION_DDOT": 0}, "tle": {"line1": "1 31415U 99025BTB 25334.12386626  .00003567  00000+0  13588-2 0  9997", "line2": "2 31415  99.6370 284.8171 0063743 110.0761 250.7294 14.30472505626509"}}, "geometry": {"type": "Point", "coordinates": [105.81085402070744, -37.782654024856235]}}]}